start=new Date('2023-02-24T00:00:00.000Z').valueOf();
sats=[{"MEAN_MOTION_DOT":"0.00105029","DECAY_DATE":null,"NORAD_CAT_ID":"55582","OBJECT_NAME":"STARLINK-5741","SEMIMAJOR_AXIS":"6727.358","TLE_LINE2":"2 55582  42.9996 290.6925 0001910 253.5929 106.4730 15.73388591  1726","EPHEMERIS_TYPE":"0","CLASSIFICATION_TYPE":"U","OBJECT_ID":"2023-020P","REV_AT_EPOCH":"172","ECCENTRICITY":"0.00019100","ARG_OF_PERICENTER":"253.5929","PERIOD":"91.522","SITE":"AFETR","ELEMENT_SET_NO":"999","CENTER_NAME":"EARTH","PERIAPSIS":"347.938","MEAN_ANOMALY":"106.4730","MEAN_MOTION_DDOT":"0.0000000000000","MEAN_ELEMENT_THEORY":"SGP4","COUNTRY_CODE":"US","RCS_SIZE":null,"APOAPSIS":"350.507","TIME_SYSTEM":"UTC","LAUNCH_DATE":"2023-02-12","FILE":"3828819","MEAN_MOTION":"15.73388591","OBJECT_TYPE":"PAYLOAD","BSTAR":"0.00072852000000","EPOCH":"2023-02-23T01:58:02.912160","INCLINATION":"42.9996","GP_ID":"226571612","TLE_LINE1":"1 55582U 23020P   23054.08197815  .00105029  00000-0  72852-3 0  9999","REF_FRAME":"TEME","RA_OF_ASC_NODE":"290.6925"},{"LAUNCH_DATE":"2023-02-12","BSTAR":"0.00057606000000","OBJECT_TYPE":"PAYLOAD","MEAN_MOTION":"15.71411425","FILE":"3828819","TLE_LINE1":"1 55583U 23020Q   23054.08636426  .00075963  00000-0  57606-3 0  9999","REF_FRAME":"TEME","INCLINATION":"42.9994","GP_ID":"226571716","EPOCH":"2023-02-23T02:04:21.872064","RA_OF_ASC_NODE":"290.7281","PERIAPSIS":"353.342","MEAN_ELEMENT_THEORY":"SGP4","MEAN_MOTION_DDOT":"0.0000000000000","MEAN_ANOMALY":"85.7434","COUNTRY_CODE":"US","TIME_SYSTEM":"UTC","RCS_SIZE":null,"APOAPSIS":"356.387","OBJECT_ID":"2023-020Q","REV_AT_EPOCH":"172","EPHEMERIS_TYPE":"0","TLE_LINE2":"2 55583  42.9994 290.7281 0002261 274.3175  85.7434 15.71411425  1726","CLASSIFICATION_TYPE":"U","ARG_OF_PERICENTER":"274.3175","ECCENTRICITY":"0.00022610","PERIOD":"91.637","CENTER_NAME":"EARTH","ELEMENT_SET_NO":"999","SITE":"AFETR","MEAN_MOTION_DOT":"0.00075963","DECAY_DATE":null,"OBJECT_NAME":"STARLINK-5742","NORAD_CAT_ID":"55583","SEMIMAJOR_AXIS":"6732.999"},{"ECCENTRICITY":"0.00023240","ARG_OF_PERICENTER":"275.9166","TLE_LINE2":"2 55584  42.9999 290.7265 0002324 275.9166  84.1437 15.71393921  1727","CLASSIFICATION_TYPE":"U","EPHEMERIS_TYPE":"0","OBJECT_ID":"2023-020R","REV_AT_EPOCH":"172","ELEMENT_SET_NO":"999","SITE":"AFETR","CENTER_NAME":"EARTH","PERIOD":"91.638","DECAY_DATE":null,"MEAN_MOTION_DOT":"0.00057779","SEMIMAJOR_AXIS":"6733.049","OBJECT_NAME":"STARLINK-5736","NORAD_CAT_ID":"55584","FILE":"3828819","MEAN_MOTION":"15.71393921","BSTAR":"0.00044026000000","OBJECT_TYPE":"PAYLOAD","LAUNCH_DATE":"2023-02-12","RA_OF_ASC_NODE":"290.7265","EPOCH":"2023-02-23T02:04:04.069344","REF_FRAME":"TEME","TLE_LINE1":"1 55584U 23020R   23054.08615821  .00057779  00000-0  44026-3 0  9993","INCLINATION":"42.9999","GP_ID":"226571627","MEAN_ANOMALY":"84.1437","MEAN_ELEMENT_THEORY":"SGP4","MEAN_MOTION_DDOT":"0.0000000000000","PERIAPSIS":"353.350","RCS_SIZE":null,"APOAPSIS":"356.479","TIME_SYSTEM":"UTC","COUNTRY_CODE":"US"},{"MEAN_ANOMALY":"91.1735","MEAN_MOTION_DDOT":"0.0000000000000","MEAN_ELEMENT_THEORY":"SGP4","PERIAPSIS":"346.781","RCS_SIZE":null,"APOAPSIS":"350.074","TIME_SYSTEM":"UTC","COUNTRY_CODE":"US","MEAN_MOTION":"15.73667445","FILE":"3828819","BSTAR":"0.00068219000000","OBJECT_TYPE":"PAYLOAD","LAUNCH_DATE":"2023-02-12","RA_OF_ASC_NODE":"290.6881","EPOCH":"2023-02-23T01:57:16.044480","GP_ID":"226571663","INCLINATION":"42.9992","REF_FRAME":"TEME","TLE_LINE1":"1 55585U 23020S   23054.08143570  .00099449  00000-0  68219-3 0  9991","DECAY_DATE":null,"MEAN_MOTION_DOT":"0.00099449","SEMIMAJOR_AXIS":"6726.563","NORAD_CAT_ID":"55585","OBJECT_NAME":"STARLINK-5769","ECCENTRICITY":"0.00024480","ARG_OF_PERICENTER":"268.8853","CLASSIFICATION_TYPE":"U","TLE_LINE2":"2 55585  42.9992 290.6881 0002448 268.8853  91.1735 15.73667445  1721","EPHEMERIS_TYPE":"0","REV_AT_EPOCH":"172","OBJECT_ID":"2023-020S","ELEMENT_SET_NO":"999","SITE":"AFETR","CENTER_NAME":"EARTH","PERIOD":"91.506"},{"RA_OF_ASC_NODE":"290.7241","EPOCH":"2023-02-23T02:03:37.840032","INCLINATION":"43.0003","GP_ID":"226571683","TLE_LINE1":"1 55586U 23020T   23054.08585463  .00079602  00000-0  60547-3 0  9998","REF_FRAME":"TEME","FILE":"3828819","MEAN_MOTION":"15.71323556","BSTAR":"0.00060547000000","OBJECT_TYPE":"PAYLOAD","LAUNCH_DATE":"2023-02-12","RCS_SIZE":null,"APOAPSIS":"356.560","TIME_SYSTEM":"UTC","COUNTRY_CODE":"US","MEAN_ANOMALY":"112.2759","MEAN_MOTION_DDOT":"0.0000000000000","MEAN_ELEMENT_THEORY":"SGP4","PERIAPSIS":"353.670","ELEMENT_SET_NO":"999","SITE":"AFETR","CENTER_NAME":"EARTH","PERIOD":"91.642","ECCENTRICITY":"0.00021460","ARG_OF_PERICENTER":"247.7881","TLE_LINE2":"2 55586  43.0003 290.7241 0002146 247.7881 112.2759 15.71323556  1721","CLASSIFICATION_TYPE":"U","EPHEMERIS_TYPE":"0","OBJECT_ID":"2023-020T","REV_AT_EPOCH":"172","SEMIMAJOR_AXIS":"6733.250","NORAD_CAT_ID":"55586","OBJECT_NAME":"STARLINK-5767","DECAY_DATE":null,"MEAN_MOTION_DOT":"0.00079602"},{"SEMIMAJOR_AXIS":"6733.247","NORAD_CAT_ID":"55587","OBJECT_NAME":"STARLINK-5727","DECAY_DATE":null,"MEAN_MOTION_DOT":"0.00021835","CENTER_NAME":"EARTH","ELEMENT_SET_NO":"999","SITE":"AFETR","PERIOD":"91.642","ARG_OF_PERICENTER":"258.4705","ECCENTRICITY":"0.00020380","OBJECT_ID":"2023-020U","REV_AT_EPOCH":"172","TLE_LINE2":"2 55587  42.9996 290.7251 0002038 258.4705 101.5934 15.71324608  1721","CLASSIFICATION_TYPE":"U","EPHEMERIS_TYPE":"0","TIME_SYSTEM":"UTC","APOAPSIS":"356.485","RCS_SIZE":null,"COUNTRY_CODE":"US","MEAN_MOTION_DDOT":"0.0000000000000","MEAN_ELEMENT_THEORY":"SGP4","MEAN_ANOMALY":"101.5934","PERIAPSIS":"353.740","RA_OF_ASC_NODE":"290.7251","INCLINATION":"42.9996","GP_ID":"226571645","TLE_LINE1":"1 55587U 23020U   23054.08602215  .00021835  00000-0  16973-3 0  9993","REF_FRAME":"TEME","EPOCH":"2023-02-23T02:03:52.313760","OBJECT_TYPE":"PAYLOAD","BSTAR":"0.00016973000000","FILE":"3828819","MEAN_MOTION":"15.71324608","LAUNCH_DATE":"2023-02-12"},{"MEAN_MOTION_DOT":"0.00063295","DECAY_DATE":null,"NORAD_CAT_ID":"55588","OBJECT_NAME":"STARLINK-5728","SEMIMAJOR_AXIS":"6732.921","REV_AT_EPOCH":"172","OBJECT_ID":"2023-020V","TLE_LINE2":"2 55588  43.0005 290.7218 0003139 241.4400 118.6152 15.71438716  1722","CLASSIFICATION_TYPE":"U","EPHEMERIS_TYPE":"0","ARG_OF_PERICENTER":"241.4400","ECCENTRICITY":"0.00031390","PERIOD":"91.636","CENTER_NAME":"EARTH","ELEMENT_SET_NO":"999","SITE":"AFETR","PERIAPSIS":"352.673","MEAN_MOTION_DDOT":"0.0000000000000","MEAN_ELEMENT_THEORY":"SGP4","MEAN_ANOMALY":"118.6152","COUNTRY_CODE":"US","TIME_SYSTEM":"UTC","RCS_SIZE":null,"APOAPSIS":"356.900","LAUNCH_DATE":"2023-02-12","BSTAR":"0.00048069000000","OBJECT_TYPE":"PAYLOAD","MEAN_MOTION":"15.71438716","FILE":"3828819","GP_ID":"226571699","INCLINATION":"43.0005","TLE_LINE1":"1 55588U 23020V   23054.08552784  .00063295  00000-0  48069-3 0  9996","REF_FRAME":"TEME","EPOCH":"2023-02-23T02:03:09.605376","RA_OF_ASC_NODE":"290.7218"},{"LAUNCH_DATE":"2023-02-12","OBJECT_TYPE":"PAYLOAD","BSTAR":"0.00028323000000","FILE":"3828819","MEAN_MOTION":"15.71369071","INCLINATION":"42.9997","GP_ID":"226571734","TLE_LINE1":"1 55589U 23020W   23054.08572616  .00036875  00000-0  28323-3 0  9998","REF_FRAME":"TEME","EPOCH":"2023-02-23T02:03:26.740224","RA_OF_ASC_NODE":"290.7230","PERIAPSIS":"353.656","MEAN_MOTION_DDOT":"0.0000000000000","MEAN_ELEMENT_THEORY":"SGP4","MEAN_ANOMALY":"89.5643","COUNTRY_CODE":"US","TIME_SYSTEM":"UTC","RCS_SIZE":null,"APOAPSIS":"356.314","OBJECT_ID":"2023-020W","REV_AT_EPOCH":"172","EPHEMERIS_TYPE":"0","TLE_LINE2":"2 55589  42.9997 290.7230 0001974 270.4998  89.5643 15.71369071  1722","CLASSIFICATION_TYPE":"U","ARG_OF_PERICENTER":"270.4998","ECCENTRICITY":"0.00019740","PERIOD":"91.640","CENTER_NAME":"EARTH","SITE":"AFETR","ELEMENT_SET_NO":"999","MEAN_MOTION_DOT":"0.00036875","DECAY_DATE":null,"NORAD_CAT_ID":"55589","OBJECT_NAME":"STARLINK-5697","SEMIMAJOR_AXIS":"6733.120"},{"NORAD_CAT_ID":"55590","OBJECT_NAME":"STARLINK-5762","SEMIMAJOR_AXIS":"6732.889","MEAN_MOTION_DOT":"0.00093851","DECAY_DATE":null,"PERIOD":"91.635","ELEMENT_SET_NO":"999","SITE":"AFETR","CENTER_NAME":"EARTH","CLASSIFICATION_TYPE":"U","TLE_LINE2":"2 55590  43.0007 290.7196 0002820 269.4031  90.6514 15.71450125  1727","EPHEMERIS_TYPE":"0","REV_AT_EPOCH":"172","OBJECT_ID":"2023-020X","ECCENTRICITY":"0.00028200","ARG_OF_PERICENTER":"269.4031","COUNTRY_CODE":"US","APOAPSIS":"356.652","RCS_SIZE":null,"TIME_SYSTEM":"UTC","PERIAPSIS":"352.855","MEAN_ANOMALY":"90.6514","MEAN_MOTION_DDOT":"0.0000000000000","MEAN_ELEMENT_THEORY":"SGP4","EPOCH":"2023-02-23T02:02:51.697248","GP_ID":"226571613","INCLINATION":"43.0007","TLE_LINE1":"1 55590U 23020X   23054.08532057  .00093851  00000-0  70818-3 0  9998","REF_FRAME":"TEME","RA_OF_ASC_NODE":"290.7196","LAUNCH_DATE":"2023-02-12","FILE":"3828819","MEAN_MOTION":"15.71450125","BSTAR":"0.00070818000000","OBJECT_TYPE":"PAYLOAD"},{"ELEMENT_SET_NO":"999","SITE":"AFETR","CENTER_NAME":"EARTH","PERIOD":"91.640","ECCENTRICITY":"0.00019800","ARG_OF_PERICENTER":"269.1178","CLASSIFICATION_TYPE":"U","TLE_LINE2":"2 55591  43.0000 290.7219 0001980 269.1178  90.9463 15.71366566  1723","EPHEMERIS_TYPE":"0","OBJECT_ID":"2023-020Y","REV_AT_EPOCH":"172","SEMIMAJOR_AXIS":"6733.127","NORAD_CAT_ID":"55591","OBJECT_NAME":"STARLINK-5760","DECAY_DATE":null,"MEAN_MOTION_DOT":"0.00042723","RA_OF_ASC_NODE":"290.7219","EPOCH":"2023-02-23T02:03:18.019872","INCLINATION":"43.0000","GP_ID":"226571717","TLE_LINE1":"1 55591U 23020Y   23054.08562523  .00042723  00000-0  32741-3 0  9995","REF_FRAME":"TEME","FILE":"3828819","MEAN_MOTION":"15.71366566","BSTAR":"0.00032741000000","OBJECT_TYPE":"PAYLOAD","LAUNCH_DATE":"2023-02-12","RCS_SIZE":null,"APOAPSIS":"356.326","TIME_SYSTEM":"UTC","COUNTRY_CODE":"US","MEAN_ANOMALY":"90.9463","MEAN_MOTION_DDOT":"0.0000000000000","MEAN_ELEMENT_THEORY":"SGP4","PERIAPSIS":"353.659"}];
